{
    "links": {
        "self": "http://www.neowsapp.com/rest/v1/neo/54000003?api_key=iIulBulltgU6a56xZRHN4H3l9WmuAYTsLGpBGhQ2"
    },
    "id": "54000003",
    "neo_reference_id": "54000003",
    "name": "(2020 DZ2)",
    "designation": "2020 DZ2",
    "nasa_jpl_url": "http://ssd.jpl.nasa.gov/sbdb.cgi?sstr=54000003",
    "absolute_magnitude_h": 24.018,
    "estimated_diameter": {
        "kilometers": {
            "estimated_diameter_min": 0.0417787052,
            "estimated_diameter_max": 0.0934200249
        },
        "meters": {
            "estimated_diameter_min": 41.7787052337,
            "estimated_diameter_max": 93.4200249144
        },
        "miles": {
            "estimated_diameter_min": 0.0259600758,
            "estimated_diameter_max": 0.0580484943
        },
        "feet": {
            "estimated_diameter_min": 137.0692472788,
            "estimated_diameter_max": 306.4961545401
        }
    },
    "is_potentially_hazardous_asteroid": false,
    "close_approach_data": [
        {
            "close_approach_date": "2020-02-04",
            "close_approach_date_full": "2020-Feb-04 11:07",
            "epoch_date_close_approach": 1580814420000,
            "relative_velocity": {
                "kilometers_per_second": "13.7996845681",
                "kilometers_per_hour": "49678.8644453029",
                "miles_per_hour": "30868.5144104717"
            },
            "miss_distance": {
                "astronomical": "0.1949992985",
                "lunar": "75.8547271165",
                "kilometers": "29171479.707094195",
                "miles": "18126316.961502091"
            },
            "orbiting_body": "Earth"
        }
    ],
    "orbital_data": {
        "orbit_id": "3",
        "orbit_determination_date": "2020-03-12 06:06:52",
        "first_observation_date": "2020-02-20",
        "last_observation_date": "2020-03-04",
        "data_arc_in_days": 13,
        "observations_used": 22,
        "orbit_uncertainty": "8",
        "minimum_orbit_intersection": ".194097",
        "jupiter_tisserand_invariant": "3.434",
        "epoch_osculation": "2458901.5",
        "eccentricity": ".5296901548554082",
        "semi_major_axis": "2.155719328459945",
        "inclination": "20.85872748603159",
        "ascending_node_longitude": "334.2304408227005",
        "orbital_period": "1156.07697165456",
        "perihelion_distance": "1.0138560235432",
        "perihelion_argument": "114.5034847063468",
        "aphelion_distance": "3.297582633376689",
        "perihelion_time": "2458842.574417109517",
        "mean_anomaly": "18.34930576483489",
        "mean_motion": ".3113979508516405",
        "equinox": "J2000",
        "orbit_class": {
            "orbit_class_type": "APO",
            "orbit_class_description": "Near-Earth asteroid orbits which cross the Earth’s orbit similar to that of 1862 Apollo",
            "orbit_class_range": "a (semi-major axis) > 1.0 AU; q (perihelion) < 1.017 AU"
        }
    },
    "is_sentry_object": false
}